{"fetched_at":"2026-03-29T02:12:04Z","count":15717,"tles":[{"name":"NEE-01 PEGASO","line1":"1 39151U 13018B   26087.32981582  .00003936  00000+0  38166-3 0  9990","line2":"2 39151  98.1084 228.8894 0013749  73.4438 286.8289 14.93225120698639","category":"Other"}]}